H1 CPF 01  gfz 2022 05 20 12  6402 terrasarx 
H2 0702601  6201 31698    2022 05 20 12 59 42 2022 05 25 00 00 42   120 1 1  0 0 0
H9
10 0 59720  43182.000000  0     634547.732   4553773.047   5120204.612
10 0 59720  43302.000000  0     745534.315   3823965.722   5671187.285
10 0 59720  43422.000000  0     830132.026   3025675.161   6122439.678
10 0 59720  43542.000000  0     885797.078   2173343.588   6466065.551
10 0 59720  43662.000000  0     910751.748   1282381.804   6696059.074
10 0 59720  43782.000000  0     904028.873    368887.011   6808403.718
10 0 59720  43902.000000  0     865497.610   -550647.711   6801137.255
10 0 59720  44022.000000  0     795869.790  -1459630.270   6674385.323
10 0 59720  44142.000000  0     696686.766  -2341668.862   6430359.732
10 0 59720  44262.000000  0     570286.917  -3180868.142   6073323.009
10 0 59720  44382.000000  0     419754.103  -3962117.854   5609516.400
10 0 59720  44502.000000  0     248849.147  -4671365.974   5047055.461
10 0 59720  44622.000000  0      61925.424  -5295875.993   4395795.771
10 0 59720  44742.000000  0    -136171.236  -5824465.422   3667166.676
10 0 59720  44862.000000  0    -340216.902  -6247716.539   2873973.066
10 0 59720  44982.000000  0    -544734.392  -6558154.611   2030169.963
10 0 59720  45102.000000  0    -744125.523  -6750388.064   1150614.352
10 0 59720  45222.000000  0    -932808.585  -6821211.390    250798.444
10 0 59720  45342.000000  0   -1105357.428  -6769662.305   -653433.059
10 0 59720  45462.000000  0   -1256636.911  -6597032.171  -1546171.320
10 0 59720  45582.000000  0   -1381932.097  -6306831.535  -2411731.199
10 0 59720  45702.000000  0   -1477068.656  -5904712.377  -3234933.271
10 0 59720  45822.000000  0   -1538521.212  -5398348.156  -4001374.561
10 0 59720  45942.000000  0   -1563506.572  -4797274.822  -4697681.033
10 0 59720  46062.000000  0   -1550059.871  -4112699.042  -5311736.555
10 0 59720  46182.000000  0   -1497092.559  -3357279.365  -5832886.254
10 0 59720  46302.000000  0   -1404430.997  -2544884.780  -6252112.104
10 0 59720  46422.000000  0   -1272835.133  -1690335.175  -6562178.073
10 0 59720  46542.000000  0   -1103997.571   -809130.210  -6757743.240
10 0 59720  46662.000000  0    -900523.555     82828.869  -6835444.093
10 0 59720  46782.000000  0    -665891.039    969520.511  -6793945.322
10 0 59720  46902.000000  0    -404392.024   1835083.028  -6633959.912
10 0 59720  47022.000000  0    -121056.983   2664090.815  -6358238.343
10 0 59720  47142.000000  0     178438.177   3441824.159  -5971528.252
10 0 59720  47262.000000  0     487882.136   4154529.001  -5480501.206
10 0 59720  47382.000000  0     800651.583   4789660.338  -4893647.848
10 0 59720  47502.000000  0    1109847.051   5336108.144  -4221143.107
10 0 59720  47622.000000  0    1408439.245   5784400.349  -3474679.684
10 0 59720  47742.000000  0    1689422.379   6126877.316  -2667272.752
10 0 59720  47862.000000  0    1945971.433   6357835.036  -1813038.171
10 0 59720  47982.000000  0    2171599.910   6473632.434   -926946.386
10 0 59720  48102.000000  0    2360313.899   6472758.226    -24556.486
10 0 59720  48222.000000  0    2506758.075   6355855.169    878263.094
10 0 59720  48342.000000  0    2606350.015   6125701.238   1765621.006
10 0 59720  48462.000000  0    2655399.348   5787148.178   2621890.842
10 0 59720  48582.000000  0    2651209.009   5347018.974   3431994.177
10 0 59720  48702.000000  0    2592156.050   4813966.379   4181673.037
10 0 59720  48822.000000  0    2477749.134   4198296.295   4857746.949
10 0 59720  48942.000000  0    2308659.789   3511757.130   5448346.287
10 0 59720  49062.000000  0    2086730.395   2767307.344   5943116.104
10 0 59720  49182.000000  0    1814959.010   1978865.355   6333393.507
10 0 59720  49302.000000  0    1497459.040   1161043.861   6612354.721
10 0 59720  49422.000000  0    1139395.631    328875.326   6775127.279
10 0 59720  49542.000000  0     746900.907   -502463.668   6818869.052
10 0 59720  49662.000000  0     326968.775  -1317928.486   6742816.551
10 0 59720  49782.000000  0    -112669.935  -2102878.940   6548297.518
10 0 59720  49902.000000  0    -563689.836  -2843342.231   6238708.888
10 0 59720  50022.000000  0   -1017327.370  -3526262.629   5819459.359
10 0 59720  50142.000000  0   -1464547.999  -4139732.287   5297879.604
10 0 59720  50262.000000  0   -1896224.671  -4673202.945   4683102.719
10 0 59720  50382.000000  0   -2303324.620  -5117675.347   3985911.629
10 0 59720  50502.000000  0   -2677099.358  -5465860.625   3218553.287
10 0 59720  50622.000000  0   -3009272.245  -5712307.245   2394523.077
10 0 59720  50742.000000  0   -3292219.911  -5853492.134   1528325.694
10 0 59720  50862.000000  0   -3519143.702  -5887874.538    635215.405
10 0 59720  50982.000000  0   -3684226.630  -5815910.113   -269079.425
10 0 59720  51102.000000  0   -3782771.758  -5640025.005  -1168641.803
10 0 59720  51222.000000  0   -3811318.167  -5364549.485  -2047655.709
10 0 59720  51342.000000  0   -3767731.502  -4995612.852  -2890692.350
10 0 59720  51462.000000  0   -3651266.700  -4541002.952  -3682986.610
10 0 59720  51582.000000  0   -3462601.532  -4009995.036  -4410697.187
10 0 59720  51702.000000  0   -3203841.516  -3413155.505  -5061145.963
10 0 59720  51822.000000  0   -2878496.560  -2762124.935  -5623033.123
10 0 59720  51942.000000  0   -2491430.548  -2069385.972  -6086624.441
10 0 59720  52062.000000  0   -2048785.038  -1348021.455  -6443909.934
10 0 59720  52182.000000  0   -1557878.136   -611466.692  -6688730.943
10 0 59720  52302.000000  0   -1027082.313    126738.305  -6816874.353
10 0 59720  52422.000000  0    -465683.502    853191.958  -6826136.481
10 0 59720  52542.000000  0     116278.263   1554868.182  -6716356.964
10 0 59720  52662.000000  0     708182.810   2219343.493  -6489421.562
10 0 59720  52782.000000  0    1299019.336   2835013.009  -6149235.483
10 0 59720  52902.000000  0    1877587.204   3391291.311  -5701662.848
10 0 59720  53022.000000  0    2432704.427   3878794.633  -5154435.082
10 0 59720  53142.000000  0    2953421.533   4289501.874  -4517028.921
10 0 59720  53262.000000  0    3429237.181   4616892.969  -3800513.501
10 0 59720  53382.000000  0    3850311.304   4856060.109  -3017367.324
10 0 59720  53502.000000  0    4207671.912   5003788.822  -2181266.834
10 0 59720  53622.000000  0    4493408.450   5058605.875  -1306849.950
10 0 59720  53742.000000  0    4700848.895   5020794.661   -409459.061
10 0 59720  53862.000000  0    4824714.798   4892373.675    495133.800
10 0 59720  53982.000000  0    4861248.079   4677039.507   1391010.792
10 0 59720  54102.000000  0    4808309.422   4380077.884   2262395.452
10 0 59720  54222.000000  0    4665445.522   4008242.011   3093940.194
10 0 59720  54342.000000  0    4433919.653   3569600.626   3871005.296
10 0 59720  54462.000000  0    4116706.698   3073361.260   4579921.626
10 0 59720  54582.000000  0    3718455.358   2529674.309   5208233.052
10 0 59720  54702.000000  0    3245414.836   1949420.987   5744916.290
10 0 59720  54822.000000  0    2705330.109   1343992.068   6180569.478
10 0 59720  54942.000000  0    2107310.334    725061.091   6507571.000
10 0 59720  55062.000000  0    1461671.370    104358.579   6720205.682
10 0 59720  55182.000000  0     779755.503   -506548.816   6814760.319
10 0 59720  55302.000000  0      73730.729  -1096474.143   6789585.299
10 0 59720  55422.000000  0    -643626.694  -1654814.691   6645120.857
10 0 59720  55542.000000  0   -1359163.171  -2171742.522   6383889.004
10 0 59720  55662.000000  0   -2059587.176  -2638377.090   6010450.763
10 0 59720  55782.000000  0   -2731714.046  -3046938.374   5531333.110
10 0 59720  55902.000000  0   -3362716.635  -3390880.618   4954923.297
10 0 59720  56022.000000  0   -3940375.252  -3665000.961   4291326.650
10 0 59720  56142.000000  0   -4453318.479  -3865520.862   3552192.839
10 0 59720  56262.000000  0   -4891251.816  -3990139.529   2750514.087
10 0 59720  56382.000000  0   -5245170.252  -4038058.574   1900397.564
10 0 59720  56502.000000  0   -5507548.800  -4009976.026   1016813.205
10 0 59720  56622.000000  0   -5672504.994  -3908048.674    115323.826
10 0 59720  56742.000000  0   -5735929.917  -3735824.596   -788196.995
10 0 59720  56862.000000  0   -5695584.004  -3498147.264  -1677854.125
10 0 59720  56982.000000  0   -5551153.387  -3201032.453  -2538020.092
10 0 59720  57102.000000  0   -5304266.952  -2851523.006  -3353615.407
10 0 59720  57222.000000  0   -4958474.939  -2457525.504  -4110375.954
10 0 59720  57342.000000  0   -4519190.192  -2027632.849  -4795101.773
10 0 59720  57462.000000  0   -3993593.739  -1570937.859  -5395883.351
10 0 59720  57582.000000  0   -3390507.607  -1096841.495  -5902301.508
10 0 59720  57702.000000  0   -2720238.568   -614860.442  -6305597.688
10 0 59720  57822.000000  0   -1994396.612   -134438.472  -6598814.064
10 0 59720  57942.000000  0   -1225690.964    335234.709  -6776901.800
10 0 59720  58062.000000  0    -427709.589    785393.992  -6836797.678
10 0 59720  58182.000000  0     385315.894   1207858.317  -6777470.859
10 0 59720  58302.000000  0    1198756.728   1595174.629  -6599939.341
10 0 59720  58422.000000  0    1997844.866   1940747.059  -6307256.523
10 0 59720  58542.000000  0    2767935.976   2238948.281  -5904464.031
10 0 59720  58662.000000  0    3494774.380   2485210.986  -5398512.930
10 0 59720  58782.000000  0    4164754.713   2676098.462  -4798155.001
10 0 59720  58902.000000  0    4765179.519   2809353.965  -4113803.340
10 0 59720  59022.000000  0    5284505.531   2883926.456  -3357361.033
10 0 59720  59142.000000  0    5712572.307   2899972.231  -2542021.919
10 0 59720  59262.000000  0    6040811.326   2858833.077  -1682045.729
10 0 59720  59382.000000  0    6262426.842   2762988.552   -792508.026
10 0 59720  59502.000000  0    6372544.414   2615984.759    110966.998
10 0 59720  59622.000000  0    6368322.188   2422339.639   1012488.150
99
